CCSDS_OMM_VERS = 2.0
CREATION_DATE  = 
ORIGINATOR     = 

OBJECT_NAME    = UNKNOWN
OBJECT_ID      = 
CENTER_NAME    = EARTH
REF_FRAME      = TEME
TIME_SYSTEM    = UTC
MEAN_ELEMENT_THEORY = SGP/SGP4

EPOCH          = 2025-11-26T11:26:18.938112
MEAN_MOTION    = 2.99915329
ECCENTRICITY   = .6573603
INCLINATION    = 2.1073
RA_OF_ASC_NODE = 255.0323
ARG_OF_PERICENTER = 35.6682
MEAN_ANOMALY   = 44.4147

EPHEMERIS_TYPE = 0
CLASSIFICATION_TYPE = U
NORAD_CAT_ID   = 84932
ELEMENT_SET_NO = 999
REV_AT_EPOCH   = 13129
BSTAR          = .54045E-2
MEAN_MOTION_DOT = .703E-5
MEAN_MOTION_DDOT = 0

CCSDS_OMM_VERS = 2.0
CREATION_DATE  = 
ORIGINATOR     = 

OBJECT_NAME    = UNKNOWN
OBJECT_ID      = 
CENTER_NAME    = EARTH
REF_FRAME      = TEME
TIME_SYSTEM    = UTC
MEAN_ELEMENT_THEORY = SGP/SGP4

EPOCH          = 2025-11-26T09:39:45.935136
MEAN_MOTION    = 14.41032012
ECCENTRICITY   = .0046452
INCLINATION    = 98.4182
RA_OF_ASC_NODE = 301.6873
ARG_OF_PERICENTER = 210.3137
MEAN_ANOMALY   = 302.4764

EPHEMERIS_TYPE = 0
CLASSIFICATION_TYPE = U
NORAD_CAT_ID   = 85004
ELEMENT_SET_NO = 999
REV_AT_EPOCH   = 62854
BSTAR          = .41052E-3
MEAN_MOTION_DOT = .1294E-4
MEAN_MOTION_DDOT = 0

CCSDS_OMM_VERS = 2.0
CREATION_DATE  = 
ORIGINATOR     = 

OBJECT_NAME    = UNKNOWN
OBJECT_ID      = 
CENTER_NAME    = EARTH
REF_FRAME      = TEME
TIME_SYSTEM    = UTC
MEAN_ELEMENT_THEORY = SGP/SGP4

EPOCH          = 2025-11-22T02:39:37.947168
MEAN_MOTION    = 13.74985401
ECCENTRICITY   = .0027171
INCLINATION    = 99.2502
RA_OF_ASC_NODE = 188.6558
ARG_OF_PERICENTER = 309.9551
MEAN_ANOMALY   = 201.8772

EPHEMERIS_TYPE = 0
CLASSIFICATION_TYPE = U
NORAD_CAT_ID   = 85010
ELEMENT_SET_NO = 999
REV_AT_EPOCH   = 60108
BSTAR          = .14181E-2
MEAN_MOTION_DOT = .1314E-4
MEAN_MOTION_DDOT = 0

CCSDS_OMM_VERS = 2.0
CREATION_DATE  = 
ORIGINATOR     = 

OBJECT_NAME    = UNKNOWN
OBJECT_ID      = 
CENTER_NAME    = EARTH
REF_FRAME      = TEME
TIME_SYSTEM    = UTC
MEAN_ELEMENT_THEORY = SGP/SGP4

EPOCH          = 2025-11-20T01:24:10.245888
MEAN_MOTION    = 14.62248783
ECCENTRICITY   = .0015709
INCLINATION    = 74.0490
RA_OF_ASC_NODE = 81.6072
ARG_OF_PERICENTER = 348.5530
MEAN_ANOMALY   = 11.5277

EPHEMERIS_TYPE = 0
CLASSIFICATION_TYPE = U
NORAD_CAT_ID   = 85015
ELEMENT_SET_NO = 999
REV_AT_EPOCH   = 63929
BSTAR          = .1361E-3
MEAN_MOTION_DOT = .657E-5
MEAN_MOTION_DDOT = 0

CCSDS_OMM_VERS = 2.0
CREATION_DATE  = 
ORIGINATOR     = 

OBJECT_NAME    = UNKNOWN
OBJECT_ID      = 
CENTER_NAME    = EARTH
REF_FRAME      = TEME
TIME_SYSTEM    = UTC
MEAN_ELEMENT_THEORY = SGP/SGP4

EPOCH          = 2025-11-26T12:51:24.372864
MEAN_MOTION    = 14.73046127
ECCENTRICITY   = .0002978
INCLINATION    = 99.8528
RA_OF_ASC_NODE = 342.5912
ARG_OF_PERICENTER = 25.5877
MEAN_ANOMALY   = 125.5924

EPHEMERIS_TYPE = 0
CLASSIFICATION_TYPE = U
NORAD_CAT_ID   = 85023
ELEMENT_SET_NO = 999
REV_AT_EPOCH   = 62644
BSTAR          = .41617E-2
MEAN_MOTION_DOT = .26799E-3
MEAN_MOTION_DDOT = 0

CCSDS_OMM_VERS = 2.0
CREATION_DATE  = 
ORIGINATOR     = 

OBJECT_NAME    = UNKNOWN
OBJECT_ID      = 
CENTER_NAME    = EARTH
REF_FRAME      = TEME
TIME_SYSTEM    = UTC
MEAN_ELEMENT_THEORY = SGP/SGP4

EPOCH          = 2025-11-26T04:55:36.205824
MEAN_MOTION    = 13.74231280
ECCENTRICITY   = .0178962
INCLINATION    = 66.0392
RA_OF_ASC_NODE = 141.9981
ARG_OF_PERICENTER = 199.2869
MEAN_ANOMALY   = 160.1365

EPHEMERIS_TYPE = 0
CLASSIFICATION_TYPE = U
NORAD_CAT_ID   = 85027
ELEMENT_SET_NO = 999
REV_AT_EPOCH   = 60234
BSTAR          = .25935E-3
MEAN_MOTION_DOT = .196E-5
MEAN_MOTION_DDOT = 0

CCSDS_OMM_VERS = 2.0
CREATION_DATE  = 
ORIGINATOR     = 

OBJECT_NAME    = UNKNOWN
OBJECT_ID      = 
CENTER_NAME    = EARTH
REF_FRAME      = TEME
TIME_SYSTEM    = UTC
MEAN_ELEMENT_THEORY = SGP/SGP4

EPOCH          = 2025-11-24T02:24:42.273792
MEAN_MOTION    = 13.43387149
ECCENTRICITY   = .014116
INCLINATION    = 102.2214
RA_OF_ASC_NODE = 289.6270
ARG_OF_PERICENTER = 41.8857
MEAN_ANOMALY   = 319.2963

EPHEMERIS_TYPE = 0
CLASSIFICATION_TYPE = U
NORAD_CAT_ID   = 85047
ELEMENT_SET_NO = 999
REV_AT_EPOCH   = 57415
BSTAR          = .2908E-1
MEAN_MOTION_DOT = .17681E-3
MEAN_MOTION_DDOT = 0

CCSDS_OMM_VERS = 2.0
CREATION_DATE  = 
ORIGINATOR     = 

OBJECT_NAME    = UNKNOWN
OBJECT_ID      = 
CENTER_NAME    = EARTH
REF_FRAME      = TEME
TIME_SYSTEM    = UTC
MEAN_ELEMENT_THEORY = SGP/SGP4

EPOCH          = 2025-11-24T17:49:04.090080
MEAN_MOTION    = 12.76857922
ECCENTRICITY   = .0267338
INCLINATION    = 102.4002
RA_OF_ASC_NODE = 310.9148
ARG_OF_PERICENTER = 230.0305
MEAN_ANOMALY   = 311.1290

EPHEMERIS_TYPE = 0
CLASSIFICATION_TYPE = U
NORAD_CAT_ID   = 85061
ELEMENT_SET_NO = 999
REV_AT_EPOCH   = 55348
BSTAR          = .13278E-1
MEAN_MOTION_DOT = .3304E-4
MEAN_MOTION_DDOT = 0

CCSDS_OMM_VERS = 2.0
CREATION_DATE  = 
ORIGINATOR     = 

OBJECT_NAME    = UNKNOWN
OBJECT_ID      = 
CENTER_NAME    = EARTH
REF_FRAME      = TEME
TIME_SYSTEM    = UTC
MEAN_ELEMENT_THEORY = SGP/SGP4

EPOCH          = 2025-11-25T01:49:11.945280
MEAN_MOTION    = 14.40688867
ECCENTRICITY   = .0011547
INCLINATION    = 74.0461
RA_OF_ASC_NODE = 255.4391
ARG_OF_PERICENTER = 132.8175
MEAN_ANOMALY   = 242.4663

EPHEMERIS_TYPE = 0
CLASSIFICATION_TYPE = U
NORAD_CAT_ID   = 85100
ELEMENT_SET_NO = 999
REV_AT_EPOCH   = 63080
BSTAR          = .1613E-3
MEAN_MOTION_DOT = .489E-5
MEAN_MOTION_DDOT = 0

CCSDS_OMM_VERS = 2.0
CREATION_DATE  = 
ORIGINATOR     = 

OBJECT_NAME    = UNKNOWN
OBJECT_ID      = 
CENTER_NAME    = EARTH
REF_FRAME      = TEME
TIME_SYSTEM    = UTC
MEAN_ELEMENT_THEORY = SGP/SGP4

EPOCH          = 2025-11-26T12:35:04.257312
MEAN_MOTION    = 13.72868862
ECCENTRICITY   = .0010039
INCLINATION    = 100.0552
RA_OF_ASC_NODE = 70.5857
ARG_OF_PERICENTER = 58.7385
MEAN_ANOMALY   = 6.2372

EPHEMERIS_TYPE = 0
CLASSIFICATION_TYPE = U
NORAD_CAT_ID   = 85106
ELEMENT_SET_NO = 999
REV_AT_EPOCH   = 60084
BSTAR          = .91242E-3
MEAN_MOTION_DOT = .792E-5
MEAN_MOTION_DDOT = 0

CCSDS_OMM_VERS = 2.0
CREATION_DATE  = 
ORIGINATOR     = 

OBJECT_NAME    = UNKNOWN
OBJECT_ID      = 
CENTER_NAME    = EARTH
REF_FRAME      = TEME
TIME_SYSTEM    = UTC
MEAN_ELEMENT_THEORY = SGP/SGP4

EPOCH          = 2025-11-26T09:18:27.489024
MEAN_MOTION    = 14.77530306
ECCENTRICITY   = .000649
INCLINATION    = 98.4034
RA_OF_ASC_NODE = 193.7235
ARG_OF_PERICENTER = 191.5213
MEAN_ANOMALY   = 168.5849

EPHEMERIS_TYPE = 0
CLASSIFICATION_TYPE = U
NORAD_CAT_ID   = 85151
ELEMENT_SET_NO = 999
REV_AT_EPOCH   = 47711
BSTAR          = .30449E-2
MEAN_MOTION_DOT = .21744E-3
MEAN_MOTION_DDOT = 0

CCSDS_OMM_VERS = 2.0
CREATION_DATE  = 
ORIGINATOR     = 

OBJECT_NAME    = UNKNOWN
OBJECT_ID      = 
CENTER_NAME    = EARTH
REF_FRAME      = TEME
TIME_SYSTEM    = UTC
MEAN_ELEMENT_THEORY = SGP/SGP4

EPOCH          = 2025-11-25T15:17:33.730080
MEAN_MOTION    = 13.71495180
ECCENTRICITY   = .0216462
INCLINATION    = 99.8543
RA_OF_ASC_NODE = 110.1585
ARG_OF_PERICENTER = 358.1574
MEAN_ANOMALY   = 13.7712

EPHEMERIS_TYPE = 0
CLASSIFICATION_TYPE = U
NORAD_CAT_ID   = 85210
ELEMENT_SET_NO = 999
REV_AT_EPOCH   = 59981
BSTAR          = .91035E-3
MEAN_MOTION_DOT = .921E-5
MEAN_MOTION_DDOT = 0

