UNKNOWN                 
1 84932U          25330.47660808  .00000703  00000+0  54045-2 0  9997
2 84932   2.1073 255.0323 6573603  35.6682  44.4147  2.99915329131290
UNKNOWN                 
1 85004U          25330.40261499  .00001294  00000+0  41052-3 0  9995
2 85004  98.4182 301.6873 0046452 210.3137 302.4764 14.41032012628546
UNKNOWN                 
1 85010U          25326.11085587  .00001314  00000+0  14181-2 0  9992
2 85010  99.2502 188.6558 0027171 309.9551 201.8772 13.74985401601088
UNKNOWN                 
1 85015U          25324.05845192  .00000657  00000+0  13610-3 0  9990
2 85015  74.0490  81.6072 0015709 348.5530  11.5277 14.62248783639296
UNKNOWN                 
1 85023U          25330.53569876  .00026799  00000+0  41617-2 0  9993
2 85023  99.8528 342.5912 0002978  25.5877 125.5924 14.73046127626442
UNKNOWN                 
1 85027U          25330.20528016  .00000196  00000+0  25935-3 0  9991
2 85027  66.0392 141.9981 0178962 199.2869 160.1365 13.74231280602348
UNKNOWN                 
1 85047U          25328.10048928  .00017681  00000+0  29080-1 0  9998
2 85047 102.2214 289.6270 0141160  41.8857 319.2963 13.43387149574156
UNKNOWN                 
1 85061U          25328.74240845  .00003304  00000+0  13278-1 0  9995
2 85061 102.4002 310.9148 0267338 230.0305 311.1290 12.76857922553480
UNKNOWN                 
1 85100U          25329.07583270  .00000489  00000+0  16130-3 0  9991
2 85100  74.0461 255.4391 0011547 132.8175 242.4663 14.40688867630808
UNKNOWN                 
1 85106U          25330.52435483  .00000792  00000+0  91242-3 0  9995
2 85106 100.0552  70.5857 0010039  58.7385   6.2372 13.72868862600845
UNKNOWN                 
1 85151U          25330.38781816  .00021744  00000+0  30449-2 0  9994
2 85151  98.4034 193.7235 0006490 191.5213 168.5849 14.77530306477118
UNKNOWN                 
1 85210U          25329.63719595  .00000921  00000+0  91035-3 0  9994
2 85210  99.8543 110.1585 0216462 358.1574  13.7712 13.71495180599813
